GOES 7                  
1 17561U 87022A   24123.71682544  .00000112  00000+0  00000+0 0  9990
2 17561  13.6356 343.1952 0004231  71.8668 110.7944  0.99894061119215
